INMARSAT 4-F2           
1 28899U 05044A   26063.69697546 -.00000269  00000+0  00000+0 0  9994
2 28899   4.9581  43.8057 0002663 320.1178 192.9236  1.00271361 74476
GSAT-8                  
1 37605U 11022A   26063.19072456  .00000073  00000+0  00000+0 0  9996
2 37605   1.8598  83.1608 0007372 214.9335 347.5527  1.00272189 52163
LUCH-5A                 
1 37951U 11074B   26062.83352980 -.00000057  00000+0  00000+0 0  9993
2 37951   8.4858  75.3546 0004005 243.8626 309.5287  1.00275356 51997
SES-5                   
1 38652U 12036A   26063.37683795  .00000022  00000+0  00000+0 0  9993
2 38652   0.0601 311.1830 0002013  27.7089 323.8631  1.00272007 43405
GSAT-10                 
1 38779U 12051B   26063.75322707 -.00000175  00000+0  00000+0 0  9995
2 38779   0.0728 263.2748 0004300 176.0991  77.2485  1.00273450 49058
LUCH-5B                 
1 38977U 12061A   26062.90224160 -.00000146  00000+0  00000+0 0  9994
2 38977  10.2575  50.9099 0004391 223.3648 195.8772  1.00271596 48555
ASTRA 5B                
1 39617U 14011B   26063.84636044  .00000127  00000+0  00000+0 0  9993
2 39617   0.0901 299.2577 0004118  27.2241 164.2665  1.00271213 43623
LUCH-5V                 
1 39727U 14023A   26063.66723760 -.00000277  00000+0  00000+0 0  9997
2 39727   4.8756  70.7724 0003028 279.5145 147.0614  1.00271709 43314
GSAT-15                 
1 41028U 15065A   26063.83378066 -.00000267  00000+0  00000+0 0  9994
2 41028   0.0886 269.9580 0000953  96.3755 189.8745  1.00270872 37751
EUTELSAT 117 WEST B     
1 41589U 16038B   26063.36225455 -.00000023  00000+0  00000+0 0  9998
2 41589   0.0384 342.0206 0000210 243.2130 310.2920  1.00271881 35619
SES-15                  
1 42709U 17026A   26063.49419834  .00000049  00000+0  00000+0 0  9998
2 42709   0.0422 304.7457 0000720  40.1185 226.1090  1.00270841  6380
QZS-2 (MICHIBIKI-2)     
1 42738U 17028A   26063.52022194 -.00000176  00000+0  00000+0 0  9997
2 42738  39.5902 244.6778 0745655 270.3311 336.1474  1.00261975  6578
QZS-3 (MICHIBIKI-3)     
1 42917U 17048A   26063.77803671 -.00000358  00000+0  00000+0 0  9994
2 42917   0.0714 216.2391 0002269 139.7530 213.5999  1.00275931 31211
QZS-4 (MICHIBIKI-4)     
1 42965U 17062A   26063.49969188 -.00000343  00000+0  00000+0 0  9992
2 42965  40.1729 344.8221 0748648 269.8938 227.8704  1.00280862 30759
BEIDOU-3 G1             
1 43683U 18085A   26063.78462708 -.00000288  00000+0  00000+0 0  9992
2 43683   2.8116 100.3760 0001365  23.2646 101.3833  1.00268480 27017
EUTELSAT 5 WEST B       
1 44624U 19067A   26063.32128137 -.00000054  00000+0  00000+0 0  9995
2 44624   0.0952 310.1510 0003197  41.8937 280.6517  1.00272617 23382
BEIDOU-3 G2             
1 45344U 20017A   26063.70421447 -.00000149  00000+0  00000+0 0  9999
2 45344   2.6550  45.5884 0002775 305.0365 145.3662  1.00271270 22211
